#dP2019  3 15  0  0  0.00000000      96 __u+U IGS08 FIT  IAC
## 2044 432000.00000000   900.00000000 58557 0.0000000000000
+   97   C01C02C03C04C05C06C07C08C09C10C11C12C13C14C16E01E02
+        E03E04E05E07E08E09E11E12E13E14E15E18E19E21E24E25E26
+        E27E30E31E33E36G01G02G03G04G05G06G07G08G09G10G11G12
+        G13G14G15G16G17G18G19G20G21G22G23G24G25G26G27G28G29
+        G30G31G32J01J02J03R01R02R03R04R05R07R08R09R10R11R13
+        R14R15R16R17R18R19R20R21R22R23R24R26  0  0  0  0  0
++        12 13 12 12 12  8  8  8  8  8  7  7  8  7  8  4  4
++         4  4  4  4  4  4  4  4  4  5  4  4  5  4  4  4  4
++         4  4  4  4  5  3  3  3  4  3  3  3  3  3  3  3  3
++         3  3  3  0  3  3  3  3  3  3  3  3  3  3  3  3  3
++         3  3  3  9  9 10  6  5  5  5  5  5  5  5  5  5  6
++         5  5  6  5  5  7  6  5  5  5  6  8  0  0  0  0  0
%c M  cc GPS ccc cccc cccc cccc cccc ccccc ccccc ccccc ccccc
%c cc cc ccc ccc cccc cccc cccc cccc ccccc ccccc ccccc ccccc
%f  1.2500000  1.025000000  0.00000000000  0.000000000000000
%f  0.0000000  0.000000000  0.00000000000  0.000000000000000
%i    0    0    0    0      0      0      0      0         0
%i    0    0    0    0      0      0      0      0         0
/* INFORMATION & ANALYSIS CENTER (IAC)            FINAL DATA
/* S/V CLOCKS ARE ALIGNED TO GPS & GLONASS TIME RESPECTIVELY
/* USING THE BROADCAST EPHEMERIS                            
/* PCV:IGS14_2038 OL/AL:FES2004  NONE     YN ORB:CoN CLK:CoN
*  2019 03 15  8 45  0.00000000
PC01 -32287.363632  27103.100841    981.207189    333.076994
PC02   4388.617984  41918.172660  -1018.146145   -378.251209
PC03 -14822.961891  39432.675965    233.325497    -55.094262
PC04 -39619.787160  14450.774211    530.576757     13.964421
PC05  21873.007658  35997.526039  -1307.813356   -121.340432
PC06  -6807.002187  30786.197332 -27494.794212    534.034541
PC07 -18094.351440  23327.445202  30071.255801     96.660226
PC08 -21860.098945  36185.891453  -1585.822004    129.215034
PC09   3834.790862  38158.178881 -16935.261725    606.859262
PC10  -4104.557992  25740.326993  33245.052526   -575.526830
PC11 -14271.529129   9969.755827  21881.769806    -51.737378
PC12 -11029.349642 -20160.138833  15846.387481    493.755123
PC13 -11706.767501  37820.995379 -14790.986149   -594.369278
PC14 -25536.077116  -5996.152652  -9530.370734    761.732346
PC16  -3490.308499  32868.768280 -26082.773737   -370.075569
PE01  26600.932468   3906.917006  12373.465444   -562.482554
PE02 -26631.393818  -3882.015827 -12345.071391     51.557338
PE03 -22845.423739 -14409.281179 -12094.151518   -144.075656
PE04  17720.897692  -4445.279845  23293.701101   -240.707126
PE05 -14619.150484 -24961.824263   6277.029468     91.366302
PE07  -2112.016169  20865.563417 -20884.188139   -149.481645
PE08 -17517.739622   4593.580150 -23407.834968   6388.642562
PE09   1853.366287 -20798.459047  20981.167656   6499.720882
PE11  10232.999481 -27789.107861    -74.670783   5715.579806
PE12  18177.292284 -15180.022830 -17761.401209   6376.517169
PE13 -10206.743809  27777.505051    274.030194    384.234162
PE14   4863.349728  25765.333606   2452.868376   6431.100839
PE15 -18006.463548  15569.210577  17601.885999    917.118852
PE18   5553.142227 -26505.330940 -14405.319252   -591.601951
PE19  22614.713275  15976.244371  10462.085238     -7.731925
PE21   9758.986577  14377.821472  23955.217985   -524.155954
PE24  12275.872280 -16324.058986 -21431.627777   6184.509595
PE25  -9706.773338 -14397.954294 -23972.758464   1864.989675
PE26   3470.300782  23856.965218 -17162.412060   4796.587918
PE27 -12705.631801  16275.189857  21210.003603    510.203309
PE30 -27575.481660   8682.517276   6374.267701   5031.572254
PE31  27669.293232  -8619.543809  -6025.437605    882.696996
PE33  15291.233957   5760.197137 -24667.582781    847.949996
PE36  -3612.102696 -23761.668648  17296.728333    736.310179
PG01 -12559.139174  21975.267302  -7660.415780   -181.155222
PG02  20016.375990 -11364.356170 -12495.314689   -163.944254
PG03  -7517.926777  13738.802863 -21475.867582    186.433437
PG04  10502.836556  24006.410885   4351.501507    133.754464
PG05  24262.300191  -3341.471805  10409.524247      1.176699
PG06  17338.426795    863.905799 -20061.833190    254.747527
PG07   -140.211986  19345.046909  18235.695642     14.597452
PG08  -8884.369342  15378.930982  19726.589844   -136.223361
PG09   7788.866290  25340.392619  -1579.332420    444.928698
PG10 -22056.792740 -11331.627639   9836.688844     96.826234
PG11  -8976.674023  24981.964259   2213.246848   -644.719793
PG12   9590.405632 -12334.831027 -21658.482404    259.992376
PG13  13657.227579  -7082.757295  21531.358572    -71.643491
PG14 -15898.937640 -10039.812640 -18520.547785    -88.281372
PG15   6894.492919 -17775.802195  18075.137100   -323.457228
PG16      0.000000      0.000000      0.000000 999999.999999
PG17  13886.204647  18639.306490 -12528.021792     23.688992
PG18 -17398.056057  19840.763378   1756.369028     34.979070
PG19  15538.243986  10253.981603 -19199.412420   -342.106249
PG20 -14635.828633 -13984.811711  17158.172005    523.109332
PG21  -4627.019678 -17630.862645  20170.064925   -232.163915
PG22 -15553.258448  11549.308946 -17906.260242   -664.558496
PG23   -495.102518  23512.553214 -11613.663091   -193.967704
PG24  14315.633858 -21933.624877  -3321.430914    -63.412729
PG25  -4029.598835 -15683.342283 -21306.545158   -733.288341
PG26 -26388.115242  -3249.728553   1900.496120    149.653841
PG27 -14245.773039   4007.803715  21965.933510    -86.549766
PG28  19910.877400  13792.554165  11396.431197    766.319520
PG29  -2536.927203 -25668.886136  -6365.519247    248.965246
PG30  10217.137112  11905.819780  21437.932166    -68.774618
PG31 -18459.231695     59.053270 -19252.848896     52.050542
PG32 -16171.110412 -15236.103694 -14591.480126   -180.331714
PJ01 -24243.873580  18873.281135 -24299.562056   -346.187232
PJ02 -30991.901197  27499.351140  12626.136686      0.275017
PJ03 -25406.802035  25439.882544  27106.737795     -0.295700
PR01 -11107.343210   5052.308391 -22395.254605     40.848503
PR02   7261.674074  16718.192509 -17781.019289    358.848020
PR03  19063.212577  16756.118926  -2265.644830     -7.653520
PR04  19594.196739   6645.092701  14924.342112    298.660005
PR05   9102.603440  -6496.733544  22934.695507     24.082291
PR07 -19231.219117 -16686.321678   1883.187676    -59.892822
PR08 -19827.106647  -7288.439551 -14251.547700     18.641885
PR09   2855.847409 -12545.737538 -22027.055526     59.183361
PR10 -13047.713936  -5624.013822 -21190.345194     45.010844
PR11 -23767.682723   5146.573475  -7624.152752    -59.745136
PR13  -4318.100306  12706.378499  21669.300145    -21.247411
PR14  13313.426325   5645.490974  21020.741502     36.923139
PR15  23585.533468  -4686.710079   8514.268897    100.632122
PR16  20049.488878 -12788.445107  -9089.914054     10.758576
PR17   5636.604268  17119.639817 -18049.415098    212.219194
PR18  10689.942081   -293.172712 -23141.343950     36.499716
PR19  10340.249003 -17241.382928 -15697.118003     48.488953
PR20   3496.323154 -25168.601653   2554.573424   -371.811619
PR21  -5845.294554 -16575.207708  18485.242204    -36.635978
PR22 -10938.470314   2904.051509  22855.196153     -9.486220
PR23  -8754.610308  20984.013546  11552.359559    215.428041
PR24  -2235.326740  25053.180824  -4194.682761   -178.225677
PR26   4054.223934 -25173.201047    172.536024      1.396632
EOF
